IRIDIUM 7               
1 24793U 97020B   25250.75262545  .00000470  00000+0  15519-3 0  9997
2 24793  86.3999 142.3500 0001973  93.0665 267.0758 14.35995174483744
IRIDIUM 5               
1 24795U 97020D   25250.92555889  .00006832  00000+0  55457-3 0  9997
2 24795  86.3871  45.5317 0106624 200.1981 159.5017 14.95036443497824
IRIDIUM 4               
1 24796U 97020E   25250.96287206  .00000448  00000+0  14505-3 0  9993
2 24796  86.3990 139.0864 0001985  86.5727 273.5697 14.36895959484356
IRIDIUM 914             
1 24836U 97030A   25250.80372195  .00000512  00000+0  15343-3 0  9997
2 24836  86.3985 147.5055 0001442  37.7335 322.3965 14.40938376619023
IRIDIUM 16              
1 24841U 97030F   25250.88770784  .00000488  00000+0  15253-3 0  9999
2 24841  86.4106 170.5663 0003626 119.6536 240.5024 14.38771806478890
IRIDIUM 911             
1 24842U 97030G   25250.85364757  .00000729  00000+0  19187-3 0  9994
2 24842  86.4530 169.2622 0014064 172.9521 187.1883 14.47728145487040
IRIDIUM 17              
1 24870U 97034B   25250.92572719  .00000597  00000+0  19142-3 0  9990
2 24870  86.4003 199.9709 0003876  93.9189 266.2452 14.37894017475479
IRIDIUM 920             
1 24871U 97034C   25250.82536540  .00000553  00000+0  16386-3 0  9991
2 24871  86.4045 179.0793 0012025 158.4887 201.6821 14.41601046478486
